{"fetched_at":"2026-04-05T05:47:15Z","count":17019,"tles":[{"name":"XRISM","line1":"1 57800U 23137A   26094.12843745  .00009491  00000+0  53588-3 0  9995","line2":"2 57800  31.0011 119.0851 0007836 294.3915  65.5905 15.11816843141644","category":"Other"},{"name":"ACS3","line1":"1 59588U 24077B   26094.26433441  .00034530  00000+0  26894-1 0  9997","line2":"2 59588  97.1950  29.6290 0073398  18.9723 341.4151 13.90880919 97751","category":"Other"},{"name":"SZ-21 MODULE","line1":"1 66515U 25246C   26094.27025469  .00061134  00000+0  47837-3 0  9994","line2":"2 66515  41.4750  45.6530 0003225 227.1909 132.8663 15.70682632 22093","category":"Other"},{"name":"HTV-X1","line1":"1 66174U 25241A   26094.21324593  .00008792  00000+0  28691-3 0  9992","line2":"2 66174  51.6358 310.0349 0007310 271.2377  88.7767 15.32530492 24850","category":"Other"}]}